NORAD_CAT_ID,OBJECT_NAME,OBJECT_TYPE,EPOCH,MEAN_MOTION,ECCENTRICITY,INCLINATION,RA_OF_ASC_NODE,ARG_OF_PERICENTER,MEAN_ANOMALY,BSTAR,MEAN_MOTION_DOT,MEAN_MOTION_DDOT,TLE_LINE0,TLE_LINE1,TLE_LINE2,SEMIMAJOR_AXIS,PERIOD,APOGEE,PERIGEE,DECAYED
53420.0,STARLINK-4552,PAYLOAD,2022-12-28 23:40:27,15.08836836,0.000194,53.2224,311.6581,58.323,301.7952,-3.8102e-05,-8.94e-06,0.0,0 STARLINK-4552,1 53420U 22097AJ  22362.98643166 -.00000894  00000-0 -38102-4 0  9993,2 53420  53.2224 311.6581 0001940  58.3230 301.7952 15.08836836 22036,6917.89,95.438,541.097,538.413,0.0
53420.0,STARLINK-4552,PAYLOAD,2022-12-29 13:58:57,15.08827697,0.0002081,53.2212,308.983,29.4536,330.6573,-0.00018329,-3.203e-05,0.0,0 STARLINK-4552,1 53420U 22097AJ  22363.58260639 -.00003203  00000-0 -18329-3 0  9995,2 53420  53.2212 308.9830 0002081  29.4536 330.6573 15.08827697 22129,6917.918000000002,95.438,541.2230000000002,538.3430000000002,0.0
53420.0,STARLINK-4552,PAYLOAD,2022-12-30 02:42:02,15.08833639,0.000234,53.2214,306.6065,41.7182,318.3988,-0.00010807,-2.008e-05,0.0,0 STARLINK-4552,1 53420U 22097AJ  22364.11252419 -.00002008  00000-0 -10807-3 0  9997,2 53420  53.2214 306.6065 0002340  41.7182 318.3988 15.08833639 22203,6917.9,95.438,541.384,538.146,0.0
53420.0,STARLINK-4552,PAYLOAD,2022-12-30 13:49:42,15.08845205,0.0001592,53.2208,304.517,49.4773,310.6357,6.1094e-05,6.85e-06,0.0,0 STARLINK-4552,1 53420U 22097AJ  22364.57618853  .00000685  00000-0  61094-4 0  9997,2 53420  53.2208 304.5170 0001592  49.4773 310.6357 15.08845205 22273,6917.864000000001,95.437,540.831,538.628,0.0
53420.0,STARLINK-4552,PAYLOAD,2022-12-31 05:43:33,15.08846599,0.0002055,53.2197,301.547,43.4718,316.6436,0.0003129999999999,4.698e-05,0.0,0 STARLINK-4552,1 53420U 22097AJ  22365.23857715  .00004698  00000-0  31300-3 0  9997,2 53420  53.2197 301.5470 0002055  43.4718 316.6436 15.08846599 22370,6917.86,95.437,541.1469999999998,538.304,0.0
53420.0,STARLINK-4552,PAYLOAD,2023-01-01 05:34:22,15.08824184,0.0002032999999999,53.2202,297.0878,39.3087,320.8052,-0.00015478,-2.75e-05,0.0,0 STARLINK-4552,1 53420U 22097AJ  23001.23220554 -.00002750  00000-0 -15478-3 0  9997,2 53420  53.2202 297.0878 0002033  39.3087 320.8052 15.08824184 22521,6917.929,95.439,541.2,538.387,0.0
53420.0,STARLINK-4552,PAYLOAD,2023-01-01 21:28:14,15.08826179,0.0002031,53.219,294.1127,36.6754,323.4377,-0.00029295,-4.946e-05,0.0,0 STARLINK-4552,1 53420U 22097AJ  23001.89461474 -.00004946  00000-0 -29295-3 0  9998,2 53420  53.2190 294.1127 0002031  36.6754 323.4377 15.08826179 23088,6917.9230000000025,95.438,541.193,538.383,0.0
53420.0,STARLINK-4552,PAYLOAD,2023-01-02 02:14:23,15.08834477,0.0002133,53.2195,293.2232,39.0748,321.0398,-0.00021212,-3.662e-05,0.0,0 STARLINK-4552,1 53420U 22097AJ  23002.09332824 -.00003662  00000-0 -21212-3 0  9992,2 53420  53.2195 293.2232 0002133  39.0748 321.0398 15.08834477 22652,6917.897,95.438,541.238,538.2869999999998,0.0
53420.0,STARLINK-4552,PAYLOAD,2023-01-02 05:25:09,15.08838337,0.0002121,53.2202,292.6284,37.7309,322.3831,-0.00019041,-3.317e-05,0.0,0 STARLINK-4552,1 53420U 22097AJ  23002.22580507 -.00003317  00000-0 -19041-3 0  9994,2 53420  53.2202 292.6284 0002121  37.7309 322.3831 15.08838337 23135,6917.885,95.438,541.2180000000002,538.283,0.0
53420.0,STARLINK-4552,PAYLOAD,2023-01-02 19:43:37,15.08834127,0.0002094,53.22,289.9521,38.0747,322.0393,0.00012564,1.712e-05,0.0,0 STARLINK-4552,1 53420U 22097AJ  23002.82195610  .00001712  00000-0  12564-3 0  9995,2 53420  53.2200 289.9521 0002094  38.0747 322.0393 15.08834127 22766,6917.898,95.438,541.212,538.315,0.0
53420.0,STARLINK-4552,PAYLOAD,2023-01-03 03:40:33,15.08826007,0.0001885,53.2205,288.4667,45.7666,314.3481,0.00012144,1.644e-05,0.0,0 STARLINK-4552,1 53420U 22097AJ  23003.15316271  .00001644  00000-0  12144-3 0  9998,2 53420  53.2205 288.4667 0001885  45.7666 314.3481 15.08826007 22814,6917.9230000000025,95.438,541.092,538.484,0.0
53420.0,STARLINK-4552,PAYLOAD,2023-01-03 11:37:29,15.08825945,0.0002166999999999,53.2201,286.9789,37.2383,322.8759,0.0001614,2.28e-05,0.0,0 STARLINK-4552,1 53420U 22097AJ  23003.48436472  .00002280  00000-0  16140-3 0  9997,2 53420  53.2201 286.9789 0002167  37.2383 322.8759 15.08825945 23323,6917.9230000000025,95.438,541.2869999999998,538.289,0.0
53420.0,STARLINK-4552,PAYLOAD,2023-01-04 11:28:16,15.08838541,0.0002115,53.2198,282.518,36.8967,323.217,9.0807e-05,1.157e-05,0.0,0 STARLINK-4552,1 53420U 22097AJ  23004.47796692  .00001157  00000-0  90807-4 0  9995,2 53420  53.2198 282.5180 0002115  36.8967 323.2170 15.08838541 23015,6917.885,95.438,541.2130000000002,538.2869999999998,0.0
53420.0,STARLINK-4552,PAYLOAD,2023-01-04 22:35:56,15.08861855,0.0001955999999999,53.2192,280.4367,33.3132,326.7983,8.0833e-05,9.99e-06,0.0,0 STARLINK-4552,1 53420U 22097AJ  23004.94162894  .00000999  00000-0  80833-4 0  9999,2 53420  53.2192 280.4367 0001956  33.3132 326.7983 15.08861855 23082,6917.814,95.436,541.0319999999998,538.325,0.0
53420.0,STARLINK-4552,PAYLOAD,2023-01-05 11:19:01,15.08861944,0.0002056999999999,53.2196,278.0584,37.2405,322.873,0.00017638,2.522e-05,0.0,0 STARLINK-4552,1 53420U 22097AJ  23005.47154052  .00002522  00000-0  17638-3 0  9991,2 53420  53.2196 278.0584 0002057  37.2405 322.8730 15.08861944 23625,6917.813,95.436,541.101,538.255,0.0
53420.0,STARLINK-4552,PAYLOAD,2023-01-06 11:09:51,15.08816137,0.0002077,53.2191,273.5981,39.5609,320.5535,-0.00019257,-3.35e-05,0.0,0 STARLINK-4552,1 53420U 22097AJ  23006.46517840 -.00003350  00000-0 -19257-3 0  9990,2 53420  53.2191 273.5981 0002077  39.5609 320.5535 15.08816137 23312,6917.953,95.439,541.255,538.381,0.0
53420.0,STARLINK-4552,PAYLOAD,2023-01-06 17:31:23,15.08827906,0.0001904,53.2188,272.4061,35.0091,325.1026,-0.00027135,-4.603e-05,0.0,0 STARLINK-4552,1 53420U 22097AJ  23006.73013462 -.00004603  00000-0 -27135-3 0  9997,2 53420  53.2188 272.4061 0001904  35.0091 325.1026 15.08827906 23355,6917.917,95.438,541.1,538.465,0.0
53420.0,STARLINK-4552,PAYLOAD,2023-01-07 01:28:18,15.08834347,0.0002131,53.2194,270.9223,36.5324,323.5813,-0.00014782,-2.64e-05,0.0,0 STARLINK-4552,1 53420U 22097AJ  23007.06132778 -.00002640  00000-0 -14782-3 0  9999,2 53420  53.2194 270.9223 0002131  36.5324 323.5813 15.08834347 23402,6917.898,95.438,541.237,538.288,0.0
53420.0,STARLINK-4552,PAYLOAD,2023-01-07 11:00:36,15.08842918,0.0002134,53.2196,269.1368,39.51,320.6047,-7.28e-05,-1.447e-05,0.0,0 STARLINK-4552,1 53420U 22097AJ  23007.45876035 -.00001447  00000-0 -72800-4 0  9993,2 53420  53.2196 269.1368 0002134  39.5100 320.6047 15.08842918 23468,6917.871,95.437,541.2130000000002,538.26,0.0
53420.0,STARLINK-4552,PAYLOAD,2023-01-07 17:22:09,15.08834827,0.0001964,53.2199,267.9471,40.6993,319.4145,-8.605e-05,-1.657e-05,0.0,0 STARLINK-4552,1 53420U 22097AJ  23007.72372519 -.00001657  00000-0 -86050-4 0  9996,2 53420  53.2199 267.9471 0001964  40.6993 319.4145 15.08834827 23505,6917.896,95.438,541.12,538.403,0.0
53420.0,STARLINK-4552,PAYLOAD,2023-01-08 23:34:30,15.08827424,0.0002252,53.2204,262.2986,45.6932,314.4244,9.381e-05,1.205e-05,0.0,0 STARLINK-4552,1 53420U 22097AJ  23008.98229448  .00001205  00000-0  93810-4 0  9996,2 53420  53.2204 262.2986 0002252  45.6932 314.4244 15.08827424 23690,6917.919,95.438,541.342,538.226,0.0
53420.0,STARLINK-4552,PAYLOAD,2023-01-09 17:03:44,15.08834673,0.0002048,53.2213,259.0278,33.6287,326.4835,0.00014999,2.099e-05,0.0,0 STARLINK-4552,1 53420U 22097AJ  23009.71092992  .00002099  00000-0  14999-3 0  9992,2 53420  53.2213 259.0278 0002048  33.6287 326.4835 15.08834673 23807,6917.897,95.438,541.178,538.345,0.0
53420.0,STARLINK-4552,PAYLOAD,2023-01-10 08:57:36,15.08834658,0.000225,53.2202,256.0527,37.5493,322.5656,1.5952e-05,-3.4e-07,0.0,0 STARLINK-4552,1 53420U 22097AJ  23010.37333605 -.00000034  00000-0  15952-4 0  9994,2 53420  53.2202 256.0527 0002250  37.5493 322.5656 15.08834658 24369,6917.897,95.438,541.318,538.205,0.0
53420.0,STARLINK-4552,PAYLOAD,2023-01-10 15:19:08,15.08836491,0.0002264,53.2211,254.8643,40.7058,319.4103,-3.1153000000000005e-05,-7.84e-06,0.0,0 STARLINK-4552,1 53420U 22097AJ  23010.63829796 -.00000784  00000-0 -31153-4 0  9998,2 53420  53.2211 254.8643 0002264  40.7058 319.4103 15.08836491 24406,6917.891,95.438,541.322,538.19,0.0
53420.0,STARLINK-4552,PAYLOAD,2023-01-11 00:51:27,15.08836551,0.0002282,53.2209,253.0803,41.1396,318.9768,-2.7782e-05,-7.299999999999999e-06,0.0,0 STARLINK-4552,1 53420U 22097AJ  23011.03573890 -.00000730  00000-0 -27782-4 0  9998,2 53420  53.2209 253.0803 0002282  41.1396 318.9768 15.08836551 24006,6917.891,95.438,541.335,538.177,0.0
53420.0,STARLINK-4552,PAYLOAD,2023-01-11 23:06:50,15.08846879,0.000182,53.2194,248.9192,42.5877,317.5257,6.7926e-05,7.93e-06,0.0,0 STARLINK-4552,1 53420U 22097AJ  23011.96308579  .00000793  00000-0  67926-4 0  9991,2 53420  53.2194 248.9192 0001820  42.5877 317.5257 15.08846879 24146,6917.859,95.437,540.9830000000002,538.465,0.0
53420.0,STARLINK-4552,PAYLOAD,2023-01-12 18:11:28,15.08837764,0.000203,53.2188,245.3493,34.88,325.2325,8.803399999999999e-05,1.113e-05,0.0,0 STARLINK-4552,1 53420U 22097AJ  23012.75796920  .00001113  00000-0  88034-4 0  9990,2 53420  53.2188 245.3493 0002030  34.8800 325.2325 15.08837764 24266,6917.887,95.438,541.1569999999998,538.3480000000002,0.0
53420.0,STARLINK-4552,PAYLOAD,2023-01-12 21:22:14,15.08841556,0.0001793,53.2193,244.7528,40.0213,320.0911,4.1928e-05,3.79e-06,0.0,0 STARLINK-4552,1 53420U 22097AJ  23012.89044825  .00000379  00000-0  41928-4 0  9999,2 53420  53.2193 244.7528 0001793  40.0213 320.0911 15.08841556 24747,6917.876,95.437,540.981,538.5,0.0
53420.0,STARLINK-4552,PAYLOAD,2023-01-12 22:57:38,15.08818152,0.0002077,53.2193,244.4561,36.8926,323.2209,0.00031897,4.789e-05,0.0,0 STARLINK-4552,1 53420U 22097AJ  23012.95669536  .00004789  00000-0  31897-3 0  9990,2 53420  53.2193 244.4561 0002077  36.8926 323.2209 15.08818152 24292,6917.946999999999,95.439,541.249,538.375,0.0
